LANDSAT 9               
1 49260U 21088A   24210.78456998  .00000680  00000+0  16100-3 0  9999
2 49260  98.2300 279.8608 0001436  90.6178 269.5185 14.57096744150740
